0095P         2046 09  8.5512  8.548724  0.376549  339.4362  209.1999    6.9221  20231204   6.5  2.0  95P/Chiron                                               MPC 75717
0096P         2023 01 31.0929  0.116354  0.961609   14.7442   93.9535   57.5301  20231204  13.0  4.8  96P/Machholz                                             MPEC 2023-N01
0096P      b  2023 01 31.0927  0.116333  0.961609   93.9481   14.7341   57.5056  20231204  13.0  4.8  96P-B/Machholz                                           MPC106348
0096P      c  2012 07 14.6812  0.123794  0.958898   15.5380   94.3495   58.5311             9.0  4.0  96P-C/Machholz                                           MPC103849
0097P         2022 02 15.9106  2.571761  0.460314  230.0339  184.1182   17.9498  20231204   5.5  6.0  97P/Metcalf-Brewington                                   MPEC 2022-C56
0098P         2021 01  4.1608  1.658787  0.562430  157.7477  114.6498   10.5671  20231204   9.0  8.0  98P/Takamizawa                                           MPEC 2021-W31
0099P         2022 04 10.5248  4.704411  0.228538  174.7115   28.0975    4.3395  20231204   4.5  6.0  99P/Kowal                                                MPEC 2023-VM5
0100P         2022 08 10.8474  2.017973  0.411767  181.9617   37.6865   25.5670  20231204   9.0  8.0  100P/Hartley                                             MPEC 2023-OA6
0101P         2020 01 13.4600  2.346198  0.596339  277.7808  116.2461    5.0496  20231204  10.0  4.8  101P/Chernykh                                            MPEC 2022-K19
0101P      b  2020 01 31.2421  2.351214  0.596550  115.4646  278.5648    5.0499  20231204   9.0  4.0  101P-B/Chernykh                                          MPC105241
0102P         2021 01 22.5553  2.074029  0.456774   20.6529  339.4117   25.8753  20231204   6.5  8.0  102P/Shoemaker                                           MPEC 2022-C56
0103P         2023 10 12.5108  1.064087  0.693788  181.3002  219.7496   13.6107  20231204   8.5  8.0  103P/Hartley                                             MPEC 2023-W26
0104P         2022 01 11.8432  1.072227  0.665828  227.2518  207.2091    5.7033  20231204  16.0  4.0  104P/Kowal                                               MPEC 2023-G31
0105P         2025 01 22.8894  2.051795  0.408859   46.4093  192.3651    9.1679  20231204  11.5  6.0  105P/Singer Brewster                                     MPC109147
0106P         2021 08 19.0273  1.529416  0.593958  353.7578   48.8618   19.5407  20231204  14.0  4.8  106P/Schuster                                            MPEC 2023-UR6
0107P         2022 08 24.6246  0.967309  0.631507   95.4813  266.7585    2.7987  20231204   9.0  4.0  107P/Wilson-Harrington                                   MPEC 2015-M77
0108P         2021 09 10.3635  1.661066  0.556115  354.4881   50.2973   11.4363  20231204   8.0 12.0  108P/Ciffreo                                             MPEC 2022-P82
0109P         1992 12  7.4106  0.994004  0.962063  153.0013  139.3559   13.7351  20231204   4.0  6.0  109P/Swift-Tuttle                                        105,  420
0110P         2021 10 18.6044  2.454503  0.318931  167.4869  287.4977   11.7064  20231204   1.0 12.0  110P/Hartley                                             MPEC 2023-KD6
0111P         2021 06 17.4122  3.707274  0.107074    1.1485   89.8159    4.2258  20231204   5.0  8.0  111P/Helin-Roman-Crockett                                MPC 75718
0112P         2026 09 21.5495  1.441930  0.590805   21.4884   31.8365   24.2112  20231204  14.0  6.0  112P/Urata-Niijima                                       MPEC 2021-S45
0113P         2022 06  1.6601  2.142506  0.419957  115.6054  306.6651    5.2881  20231204  13.5  4.0  113P/Spitaler                                            MPEC 2023-VM5
0114P         2026 09 14.9688  1.573262  0.555824  172.7576  271.0231   18.2983  20231204  11.5  6.0  114P/Wiseman-Skiff                                       MPEC 2023-A50
0115P         2020 07 28.4824  2.060836  0.517623  120.9844  176.0123   11.6771  20231204  10.5  6.0  115P/Maury                                               MPEC 2023-J29
0116P         2022 07 16.6941  2.196360  0.370311  173.2197   20.9740    3.6034  20231204   2.5 10.0  116P/Wild                                                MPEC 2023-VM5
0117P         2022 07  9.4914  3.042915  0.256035  223.3327   58.8173    8.7050  20231204   2.5  8.0  117P/Helin-Roman-Alu                                     MPEC 2023-W26
0118P         2022 11 24.4179  1.829062  0.453666  314.8692  142.0904   10.0905  20231204  12.0  4.0  118P/Shoemaker-Levy                                      MPEC 2023-W26
0119P         2022 08 12.2345  2.328260  0.388390  322.1461  104.5627    7.3924  20231204  12.5  4.0  119P/Parker-Hartley                                      MPEC 2023-M14
0120P         2021 05  7.7809  2.480404  0.374800   36.6897  358.7244    8.4880  20231204  12.0  4.0  120P/Mueller                                             MPEC 2022-CN4
0121P         2023 06 29.0662  3.730376  0.186416   11.7081   94.1134   20.1634  20231204   6.5  8.0  121P/Shoemaker-Holt                                      MPEC 2023-W26
0122P         1995 09 15.5844  0.662317  0.962425   12.9906   79.7142   85.8725  20231204   7.5  5.2  122P/de Vico                                             MPC 75718
0123P         2026 09 22.8327  2.156898  0.444272  104.0340   45.9062   15.2792  20231204  12.2  4.0  123P/West-Hartley                                        MPEC 2021-F20
0124P         2026 06 23.7582  1.729370  0.487136  185.2043    0.0873   31.4769  20231204  13.5  2.8  124P/Mrkos                                               MPEC 2023-T65
0125P         2024 03  7.3004  1.526675  0.512118   87.1423  153.1520    9.9850  20231204  13.0  6.0  125P/Spacewatch                                          MPEC 2022-YB4
0126P         2023 07  5.3082  1.710454  0.696533  356.5877  357.8669   45.8713  20231204   6.0  8.0  126P/IRAS                                                MPEC 2023-W26
0127P         2022 08 10.4189  2.211829  0.359359    6.2941   13.6060   14.3010  20231204  11.0  6.0  127P/Holt-Olmstead                                       MPEC 2023-D41
0128P         2026 07 16.2817  3.040236  0.322300  210.3292  214.3424    4.3704  20231204   8.5  4.0  128P/Shoemaker-Holt                                      MPC 89014
0129P         2022 11 30.4655  3.924322  0.085437  307.4938  184.8608    3.4424  20231204  11.0  4.0  129P/Shoemaker-Levy                                      MPEC 2023-M14
0130P         2024 04 14.8715  1.822991  0.460929  246.1234   70.1785    6.0636  20231204  10.0  6.0  130P/McNaught-Hughes                                     MPEC 2023-M14
0131P         2026 02 15.2310  2.409021  0.344914  179.0998  214.1787    7.3608  20231204  11.0  4.0  131P/Mueller                                             MPC102101
0132P         2021 11 13.2559  1.693467  0.564654  216.4018  174.0328    5.3822  20231204  11.0  6.0  132P/Helin-Roman-Alu                                     MPEC 2022-TD3
0133P         2024 05 10.3308  2.670689  0.156132  131.9174  160.1030    1.3897  20231204  15.4  2.0  133P/Elst-Pizarro                                        MPC 94676
0134P         2030 01 13.0274  2.600489  0.585027   18.7998  202.0117    4.3349  20231204  11.5  4.0  134P/Kowal-Vavrova                                       MPC 89012
0135P         2022 04  7.3717  2.681512  0.294371   22.3784  213.0206    6.0637  20231204   7.0  8.0  135P/Shoemaker-Levy                                      MPEC 2022-OB6
0136P         2025 01  3.1360  2.958793  0.293325  225.1343  137.4980    9.4273  20231204  11.0  4.0  136P/Mueller                                             MPEC 2022-K19
0137P         2028 07 27.7909  1.927800  0.573693  141.2078  232.9281    4.8600  20231204  11.0  4.0  137P/Shoemaker-Levy                                      MPEC 2023-J29
0138P         2026 03 24.1142  1.695249  0.531601   95.6067  309.2998   10.0949  20231204  15.0  6.0  138P/Shoemaker-Levy                                      MPEC 2016-U66
0139P         2027 07 21.7586  3.395239  0.248282  165.8150  242.1793    2.3371  20231204   9.5  4.0  139P/Vaisala-Oterma                                      MPEC 2020-HN5
0140P         2031 10 14.8994  1.948209  0.695885  172.4568  343.2964    3.8105  20231204  11.5  6.0  140P/Bowell-Skiff                                        MPEC 2015-E14
0141P         2026 04 22.7337  0.806868  0.736108  153.5971  241.8114   13.9543  20231204  12.0 12.0  141P/Machholz                                            MPEC 2022-K19
0141P      a  2026 04 23.0413  0.806920  0.736102  241.8584  153.5641   13.9446  20231204  12.0 12.0  141P-A/Machholz                                          MPEC 2015-KD9
0141P      b  2026 04 15.0667  0.807237  0.735860  241.7477  153.6397   13.9885  20231204   9.0  4.0  141P-B/Machholz                                          MPC 24216
0141P      d  2026 05 18.2643  0.806217  0.737058  242.1059  153.2911   13.8367  20231204   9.0  4.0  141P-D/Machholz                                          MPC 37026
0141P      e  1994 09 19.2500  0.752528  0.750233  149.2667  246.1856   12.8152             9.0  4.0  141P-E/Machholz                                          MPEC 2015-R12
0141P      f  1994 09 19.1963  0.752528  0.750009  149.2374  246.1881   12.7898             9.0  4.0  141P-F/Machholz                                          MPEC 2015-R12
0141P      g  1994 09 19.1048  0.752528  0.749643  149.0784  246.3146   12.8259             9.0  4.0  141P-G/Machholz                                          MPEC 2015-R12
0141P      h  2015 08 24.3866  0.761562  0.746822  149.4500  246.0900   12.8431            18.5  4.0  141P-H/Machholz                                          MPC 95735
0141P      i  2026 04 13.3209  0.806771  0.735327  241.8686  153.5183   13.9445  20231204  17.5  4.0  141P-I/Machholz                                          MPEC 2022-SU8
